STARLINK-4019           
1 52598U 22052A   22286.76526643  .00000767  00000+0  66277-4 0  9990
2 52598  53.2171 103.8161 0001812  53.9338 306.1821 15.08841997 23944
STARLINK-4024           
1 52599U 22052B   22287.00772626  .00001222  00000+0  94896-4 0  9998
2 52599  53.2180  97.7271 0002476  37.7287 322.3879 15.08821802 23629
STARLINK-4026           
1 52600U 22052C   22286.59829293  .00003310  00000+0  22597-3 0  9995
2 52600  53.2177  99.5681 0001788  49.1356 310.9791 15.08839375 23992
STARLINK-4027           
1 52601U 22052D   22286.73813121  .00003018  00000+0  20763-3 0  9993
2 52601  53.2171  98.9381 0001806  45.6525 314.4615 15.08840711 24011
STARLINK-4012           
1 52602U 22052E   22286.86692950  .00001549  00000+0  11535-3 0  9997
2 52602  53.2168  98.3622 0001364  46.6916 313.4190 15.08844901 24038
STARLINK-4016           
1 52603U 22052F   22286.78598238  .00001629  00000+0  12043-3 0  9997
2 52603  53.2161  98.7308 0001633  51.4667 308.6471 15.08830224 24023
STARLINK-4013           
1 52604U 22052G   22286.99205474  .00001510  00000+0  11295-3 0  9995
2 52604  53.2178  97.7917 0001950  42.0756 318.0385 15.08837107 23625
STARLINK-4000           
1 52605U 22052H   22286.82782658  .00002290  00000+0  16187-3 0  9993
2 52605  53.2157 103.5390 0001633  63.7539 296.3621 15.08849939 23156
STARLINK-3928           
1 52606U 22052J   22286.92213868  .00001105  00000+0  87569-4 0  9994
2 52606  53.2204  98.1121 0002023  35.9404 324.1724 15.08832496 23612
STARLINK-3947           
1 52607U 22052K   22287.01918632  .00001783  00000+0  13008-3 0  9995
2 52607  53.2173 102.6745 0001583  59.8146 300.3003 15.08849070 23554
STARLINK-3979           
1 52608U 22052L   22286.84855448 -.00001905  00000+0 -10170-3 0  9996
2 52608  53.2180  98.4423 0001805  40.2912 319.8214 15.08809657 23231
STARLINK-3997           
1 52609U 22052M   22286.77588781  .00002936  00000+0  20249-3 0  9993
2 52609  53.2178  98.7853 0001958  43.4271 316.6875 15.08843417 23220
STARLINK-3998           
1 52610U 22052N   22286.75791707  .00004943  00000+0  32844-3 0  9991
2 52610  53.2153 103.8497 0002256  39.9926 320.1232 15.08844683 23140
STARLINK-3980           
1 52611U 22052P   22286.75055713  .00002256  00000+0  15985-3 0  9994
2 52611  53.2173 103.8824 0001801  47.9973 312.1172 15.08833670 23512
STARLINK-4002           
1 52612U 22052Q   22287.17604971  .00002445  00000+0  17165-3 0  9990
2 52612  53.2186  96.9848 0001957  47.5885 312.5272 15.08839908 23655
STARLINK-3921           
1 52613U 22052R   22287.15856944  .00002620  00000+0  18263-3 0  9993
2 52613  53.2129  87.0508 0001780  74.5188 285.6001 15.08842310 23782
STARLINK-3982           
1 52614U 22052S   22286.89729379  .00004113  00000+0  27631-3 0  9993
2 52614  53.2164  88.2244 0001885  51.5359 308.5802 15.08843951 23745
STARLINK-4011           
1 52615U 22052T   22286.87935734  .00001881  00000+0  13624-3 0  9992
2 52615  53.2170 103.3026 0001617  52.6383 307.4757 15.08836967 23153
STARLINK-4015           
1 52616U 22052U   22286.75744719  .00003544  00000+0  24062-3 0  9997
2 52616  53.2165  88.8585 0001904  46.0755 314.0394 15.08842933 23357
STARLINK-3996           
1 52617U 22052V   22286.75009592  .00005549  00000+0  36639-3 0  9991
2 52617  53.2154  88.8829 0001588  55.5430 304.5712 15.08844440 23724
STARLINK-3983           
1 52618U 22052W   22286.75377260  .00002331  00000+0  16451-3 0  9998
2 52618  53.2177  88.8839 0001600  59.8102 300.3049 15.08835581 23722
STARLINK-3741           
1 52619U 22052X   22286.74736368  .00000545  00000+0  52314-4 0  9990
2 52619  53.2181  88.9107 0001722  48.1999 311.9140 15.08839887 23720
STARLINK-3975           
1 52620U 22052Y   22287.00815271  .00003910  00000+0  26357-3 0  9999
2 52620  53.2162 102.7302 0001831  57.7247 302.3922 15.08848421 23553
STARLINK-3984           
1 52621U 22052Z   22286.73905371  .00001305  00000+0  10010-3 0  9995
2 52621  53.2174  88.9505 0001935  49.7110 310.4051 15.08838663 23721
STARLINK-4008           
1 52622U 22052AA  22286.97135349  .00006615  00000+0  43317-3 0  9997
2 52622  53.2177 102.8984 0001489  73.2288 286.8867 15.08853210 23551
STARLINK-3986           
1 52623U 22052AB  22286.80161377  .00005729  00000+0  37760-3 0  9990
2 52623  53.2172  88.6685 0002139  43.7263 316.3898 15.08852863 23358
STARLINK-4009           
1 52624U 22052AC  22286.74641255  .00000934  00000+0  76756-4 0  9994
2 52624  53.2170  88.9156 0001960  48.2848 311.8311 15.08836360 23346
STARLINK-3988           
1 52625U 22052AD  22286.86417612  .00002011  00000+0  14443-3 0  9998
2 52625  53.2180  88.3698 0001274  93.8449 266.2688 15.08838848 23741
STARLINK-3990           
1 52626U 22052AE  22286.61025350  .00002580  00000+0  18014-3 0  9995
2 52626  53.2163  89.5251 0001618  64.3899 295.7261 15.08841543 23329
STARLINK-3992           
1 52627U 22052AF  22286.91936903  .00002178  00000+0  15489-3 0  9990
2 52627  53.2197  88.1383 0002184  50.0973 310.0211 15.08843016 23752
STARLINK-4001           
1 52628U 22052AG  22286.57023556  .00000996  00000+0  80669-4 0  9993
2 52628  53.2187 104.7055 0001818  54.9894 305.1268 15.08837803 23115
STARLINK-4022           
1 52629U 22052AH  22286.71698394  .00004296  00000+0  28804-3 0  9997
2 52629  53.2187  89.0366 0001752  69.3221 290.7959 15.08815007 23340
STARLINK-3989           
1 52630U 22052AJ  22286.86049047  .00001691  00000+0  12434-3 0  9998
2 52630  53.2199  88.4000 0002031  38.0703 322.0433 15.08839290 23742
STARLINK-3794           
1 52631U 22052AK  22287.17697367  .00002330  00000+0  16441-3 0  9991
2 52631  53.2195  86.9738 0001598  49.4147 310.6984 15.08840844 23791
STARLINK-3995           
1 52632U 22052AL  22286.85681924  .00000191  00000+0  30118-4 0  9999
2 52632  53.2187  88.4037 0001760  55.4755 304.6403 15.08833587 23745
STARLINK-3994           
1 52633U 22052AM  22286.83473641  .00002984  00000+0  20554-3 0  9997
2 52633  53.2194  88.5012 0001436  51.8944 308.2177 15.08834567 23374
STARLINK-3974           
1 52634U 22052AN  22286.71425656  .00000653  00000+0  59137-4 0  9999
2 52634  53.2188  89.0511 0001625  51.2663 308.8474 15.08831873 23340
STARLINK-3978           
1 52635U 22052AP  22286.81725279  .00002696  00000+0  18744-3 0  9992
2 52635  53.2170  78.5854 0002078  34.5003 325.6123 15.08836971 23500
STARLINK-3967           
1 52636U 22052AQ  22287.17329546  .00001511  00000+0  11299-3 0  9993
2 52636  53.2184  86.9823 0002074  61.1076 299.0124 15.08841751 23795
STARLINK-3961           
1 52637U 22052AR  22287.14476622  .00000509  00000+0  50090-4 0  9998
2 52637  53.2172  77.1150 0001512  61.0178 299.0965 15.08849308 23920
STARLINK-3941           
1 52638U 22052AS  22287.16961271  .00001153  00000+0  90505-4 0  9991
2 52638  53.2196  87.0013 0001425  56.0400 304.0728 15.08839754 23793
STARLINK-3968           
1 52639U 22052AT  22287.13373441  .00001147  00000+0  90172-4 0  9998
2 52639  53.2167  77.1633 0002540  45.0007 315.1190 15.08843791 23927
STARLINK-3977           
1 52640U 22052AU  22287.14941642  .00008429  00000+0  54748-3 0  9993
2 52640  53.2163  77.0929 0002092  53.2097 306.9087 15.08811411 23921
STARLINK-3991           
1 52641U 22052AV  22286.86509356  .00003343  00000+0  22808-3 0  9996
2 52641  53.2174  78.3716 0002263  37.7431 322.3719 15.08837134 23510
STARLINK-3971           
1 52642U 22052AW  22287.14109024  .00001906  00000+0  13782-3 0  9991
2 52642  53.2169  77.1290 0002179  42.1244 317.9915 15.08843388 23928
STARLINK-3963           
1 52643U 22052AX  22286.92028389  .00001161  00000+0  91048-4 0  9996
2 52643  53.2196  78.1192 0001926  27.8634 332.2461 15.08838689 23893
STARLINK-3985           
1 52644U 22052AY  22286.80621096 -.00000588  00000+0 -18837-4 0  9997
2 52644  53.2177  78.6364 0002016  32.1334 327.9780 15.08849428 23872
STARLINK-3973           
1 52645U 22052AZ  22287.11629764  .00000503  00000+0  49701-4 0  9992
2 52645  53.2169  77.2437 0001942  38.7664 321.3467 15.08837665 23921
STARLINK-3832           
1 52646U 22052BA  22286.86140664 -.00003127  00000+0 -17828-3 0  9992
2 52646  53.2173  78.3857 0002083  38.1741 321.9398 15.08867586 23881
STARLINK-3846           
1 52647U 22052BB  22286.57901399 -.00000413  00000+0 -78610-5 0  9994
2 52647  53.2188  79.6551 0001949  45.2336 314.8815 15.08823296 23472
STARLINK-3854           
1 52648U 22052BC  22286.72525181  .00006167  00000+0  40511-3 0  9990
2 52648  53.2182  78.9940 0002285  39.4141 320.7017 15.08852409 23483
STARLINK-3868           
1 52649U 22052BD  22286.45019753 -.00002064  00000+0 -11151-3 0  9996
2 52649  53.2190  80.2318 0002051  44.2822 315.8334 15.08859222 23453
STARLINK-3891           
1 52650U 22052BE  22287.12087857 -.00002893  00000+0 -16363-3 0  9993
2 52650  53.2195  67.2144 0002222  37.7946 322.3201 15.08862815 24062
